SL-14 R/B               
1 20262U 89080C   25308.09867014  .00000275  00000+0  73106-4 0  9994
2 20262  82.5917 253.8179 1231474 111.8518 261.7976 12.50372374644453
DELTA 1 R/B             
1 20323U 89089B   25308.14821990  .00000418  00000+0  11231-3 0  9999
2 20323  97.0793 170.4954 0069727 158.1248 202.2952 14.50522528877533
ARIANE 40 R/B           
1 20443U 90005H   25308.16915876  .00000381  00000+0  13503-3 0  9994
2 20443  98.3297   7.4275 0009446 216.7985 143.2556 14.39751926874742
DELTA 2 R/B(1)          
1 20453U 90008B   25308.19773870  .00037996  00000+0  67479-3 0  9990
2 20453  35.6081 268.7440 0118485 188.2060 171.6731 15.41651661906672
COSMOS 2058             
1 20465U 90010A   25308.13035458  .00003829  00000+0  23351-3 0  9992
2 20465  82.4682 171.0092 0011535  47.7983 312.4223 15.10030764923280
SL-14 R/B               
1 20466U 90010B   25308.16277096  .00000566  00000+0  65911-4 0  9996
2 20466  82.5051  25.2706 0019704 358.1055   2.0082 14.83416977909876
SL-14 R/B               
1 20511U 90018B   25308.12737678  .00000493  00000+0  59020-4 0  9991
2 20511  82.5215 340.4583 0017397 141.2443 219.0023 14.81991087903981
HST                     
1 20580U 90037B   25307.98744178  .00007510  00000+0  26478-3 0  9991
2 20580  28.4664 176.1122 0001844 152.3920 207.6773 15.27300295754064
SL-16 R/B               
1 20625U 90046B   25308.14765314 -.00000096  00000+0 -24958-4 0  9991
2 20625  70.9992 201.5668 0012520 142.9460 217.2530 14.14992393830632
COSMOS 2084             
1 20663U 90055A   25307.69470573  .00003909  00000+0  28656-3 0  9994
2 20663  62.7919  44.9977 0038237 170.0352 190.1515 15.04657736917355
SL-6 R/B(2)             
1 20666U 90055D   25308.11090405  .00002656  00000+0  21189-3 0  9999
2 20666  62.7836 320.6429 0010653 274.0913  85.8968 15.02783849919315
SL-8 R/B                
1 20775U 90078B   25308.11816198  .00016200  00000+0  50004-3 0  9998
2 20775  82.9088   3.8125 0382785  74.9703 289.3536 14.83908541790645
SL-8 R/B                
1 21088U 91006B   25308.17036457  .00000128  00000+0  11291-3 0  9993
2 21088  82.9401 263.4037 0023321  30.0489 340.6252 13.77481337746794
OKEAN-3                 
1 21397U 91039A   25308.15875757  .00004543  00000+0  32860-3 0  9994
2 21397  82.5139  98.3774 0015556  41.5251 318.7154 15.03716577846166
COSMOS 2151             
1 21422U 91042A   25308.12180412  .00002642  00000+0  21296-3 0  9990
2 21422  82.4995 204.7061 0013922 118.7161 241.5463 14.99472669844370
SL-14 R/B               
1 21423U 91042B   25308.15419248  .00000486  00000+0  58780-4 0  9999
2 21423  82.4930 337.9111 0015597 296.0532  63.9076 14.81685802834480
ERS-1                   
1 21574U 91050A   25308.01642425  .00000371  00000+0  13384-3 0  9998
2 21574  98.7929 318.0981 0031400 213.5567 146.3632 14.39318526797653
ARIANE 40 R/B           
1 21610U 91050F   25308.15817051  .00000420  00000+0  13849-3 0  9994
2 21610  98.2223 359.9710 0004396  95.3069 264.8623 14.42762088800894
INTERCOSMOS 25          
1 21819U 91086A   25308.16071595  .00001546  00000+0  29914-3 0  9990
2 21819  82.6095  25.8908 1488759  27.5394 339.7105 12.11562155481489
SL-8 R/B                
1 21876U 92008B   25308.13792446  .00000113  00000+0  10041-3 0  9990
2 21876  82.9295   1.1574 0035951 124.2792 292.2932 13.75947200692159
SL-8 R/B                
1 21938U 92020B   25308.13286169  .00000045  00000+0  31581-4 0  9990
2 21938  82.9300 246.9843 0027705 289.7480  81.2634 13.75520079683877
USA 81                  
1 21949U 92023A   25308.12189272  .00000236  00000+0  80204-4 0  9999
2 21949  85.0116 203.8412 0002786  83.7010 276.4500 14.32305228 76816
COSMOS 2219             
1 22219U 92076A   25308.17172481  .00000342  00000+0  20443-3 0  9993
2 22219  71.0598 280.4520 0017118  25.5581 334.6384 14.14060575700633
SL-16 R/B               
1 22220U 92076B   25308.19110678  .00000294  00000+0  17024-3 0  9994
2 22220  70.9984  92.7299 0014997 284.0941 249.0703 14.16831553704051
COSMOS 2221             
1 22236U 92080A   25308.01447735  .00002807  00000+0  25072-3 0  9998
2 22236  82.5069  39.3770 0013231 252.7705 107.2069 14.95526462762008
SL-16 R/B               
1 22285U 92093B   25308.15757466  .00000069  00000+0  59759-4 0  9994
2 22285  71.0201 267.7844 0003361 170.5191 189.5996 14.15418058695393
COSMOS 2228             
1 22286U 92094A   25308.11213394  .00002290  00000+0  19895-3 0  9993
2 22286  82.5203 357.4886 0018210   9.9517 350.2062 14.96466861757273
SL-16 R/B               
1 22566U 93016B   25307.90277792 -.00000177  00000+0 -66608-4 0  9996
2 22566  71.0049 119.3694 0009497 167.9628 192.1724 14.15278665684374
COSMOS 2242             
1 22626U 93024A   25307.64053528  .00002626  00000+0  23214-3 0  9996
2 22626  82.5224  27.2032 0016664  14.5117 345.6579 14.95862826761544
SL-16 R/B               
1 22803U 93059B   25308.19420160 -.00000153  00000+0 -51945-4 0  9990
2 22803  70.9891 275.7661 0015683  34.7548 325.4597 14.17202167661750
ARIANE 40 R/B           
1 22830U 93061H   25308.13955044  .00000288  00000+0  12159-3 0  9991
2 22830  98.5123  14.3635 0009654 298.4134  61.6077 14.32763840676129
COSMOS 2278             
1 23087U 94023A   25308.06129851  .00000061  00000+0  56352-4 0  9999
2 23087  71.0519  77.9277 0010414 229.3362 130.6857 14.14331420627043
SL-16 R/B               
1 23088U 94023B   25308.16528125  .00000003  00000+0  25943-4 0  9996
2 23088  71.0009 334.4963 0001903 177.2370 182.8763 14.14992979628334
SL-16 R/B               
1 23343U 94074B   25308.11965109  .00000581  00000+0  84933-4 0  9993
2 23343  97.7255 338.9497 0005108 270.6679 157.0624 14.79220656668687
SL-16 R/B               
1 23405U 94077B   25308.12517567  .00000103  00000+0  77106-4 0  9991
2 23405  70.9816 256.6458 0003526 315.2137  44.8700 14.15538676598462
ARIANE 40+ R/B          
1 23561U 95021B   25308.16245662  .00000392  00000+0  13919-3 0  9993
2 23561  98.4697  16.2095 0007388 150.3437 263.4553 14.39648408601185
SL-16 R/B               
1 23705U 95058B   25308.12593972  .00000273  00000+0  16403-3 0  9998
2 23705  71.0206  83.8698 0014353 305.4522  54.5260 14.15473439550085
SL-16 R/B               
1 24298U 96051B   25307.67803077 -.00000085  00000+0 -19494-4 0  9996
2 24298  70.7590  81.9602 0017517 311.2268  48.7341 14.12392263503856
ORBVIEW 2 (SEASTAR)     
1 24883U 97037A   25308.15827440  .00000357  00000+0  14075-3 0  9994
2 24883  98.8444 104.2672 0003220  78.0258 282.1287 14.35371224490468
SL-16 R/B               
1 25400U 98043G   25308.13751777  .00000100  00000+0  60683-4 0  9998
2 25400  98.8058 255.7525 0010322  24.5488 335.6181 14.26010482421092
SL-16 R/B               
1 25407U 98045B   25308.12787243  .00000230  00000+0  14038-3 0  9999
2 25407  71.0102  85.6224 0008968 228.6342 131.4010 14.16167312409326
ISS (ZARYA)             
1 25544U 98067A   25307.77750668  .00010400  00000+0  19172-3 0  9990
2 25544  51.6338 335.3649 0005000  13.8862 346.2263 15.49729876536811
CZ-4B R/B               
1 25732U 99025C   25308.15975043  .00000095  00000+0  66787-4 0  9997
2 25732  98.6830 350.2914 0036807 347.6646  80.1823 14.18228725370371
OKEAN-O                 
1 25860U 99039A   25308.12035602  .00000908  00000+0  12683-3 0  9997
2 25860  97.9661   4.1469 0001698  73.6308 286.5090 14.80060781415810
SL-16 R/B               
1 25861U 99039B   25308.15274861  .00000714  00000+0  97913-4 0  9998
2 25861  98.0183   2.2911 0013730 308.1102  51.8871 14.81500579418279
DELTA 2 R/B             
1 25876U 99041E   25308.11843150  .00000960  00000+0  19356-3 0  9993
2 25876  51.7634  82.5943 0504730 337.9496  20.0390 14.11262397345290
HELIOS 1B               
1 25977U 99064A   25307.98116167  .00002314  00000+0  26469-3 0  9993
2 25977  98.1760 201.5031 0002508  95.6655 264.4846 14.87036558666577
TERRA                   
1 25994U 99068A   25308.17405272  .00000618  00000+0  13546-3 0  9993
2 25994  97.9805   1.2616 0001766 185.1423 238.4341 14.60882996376755
SL-16 R/B               
1 26070U 00006B   25307.89881271  .00000276  00000+0  16445-3 0  9999
2 26070  71.0042   2.3268 0016283   4.9778 355.1504 14.15799765330752
TITAN 4B R/B            
1 26474U 00047B   25308.15553036  .00005271  00000+0  33986-3 0  9996
2 26474  67.9920  33.1854 0042672 189.1062 170.9318 15.08350940373973
ENVISAT                 
1 27386U 02009A   25308.16567468  .00000161  00000+0  65950-4 0  9994
2 27386  98.3535 259.8970 0001350  84.3013 286.8865 14.38976907241126
IDEFIX & ARIANE 42P R/B 
1 27422U 02021B   25307.42540801  .00000353  00000+0  15085-3 0  9995
2 27422  98.5723 242.6395 0011325 194.1652 165.9215 14.30905513225968
AQUA                    
1 27424U 02022A   25308.15038490  .00001314  00000+0  27395-3 0  9990
2 27424  98.3977 268.4182 0001176  49.3570   8.9359 14.61665069250395
CZ-4B R/B               
1 27432U 02024C   25308.16716502  .00000063  00000+0  55367-4 0  9990
2 27432  98.9061 357.0624 0050475  20.6259  46.9159 14.14515726211492
MIDORI II (ADEOS-II)    
1 27597U 02056A   25307.86006580  .00000361  00000+0  15996-3 0  9995
2 27597  98.7570 260.6257 0001705  46.5183 313.6140 14.29164133192325
H-2A R/B                
1 27601U 02056E   25308.14562354  .00000339  00000+0  13362-3 0  9999
2 27601  98.3004 268.4520 0070311 174.7318 195.8471 14.33633750196121
CZ-4B R/B               
1 28059U 03049C   25307.94438824  .00000536  00000+0  13501-3 0  9995
2 28059  98.6761 293.0484 0047102 255.2248 104.3726 14.54852957168317
CZ-2C R/B               
1 28222U 04012C   25308.09838745  .00034680  00000+0  57048-3 0  9992
2 28222  97.7502 357.6215 0020290  54.6589 305.6555 15.52056865184721
SL-16 R/B               
1 28353U 04021B   25307.94119722 -.00000090  00000+0 -22073-4 0  9998
2 28353  70.9972 136.3841 0006960 241.4660 118.5762 14.14569580105051
